SAUDISAT 1A             
1 26545U 00057A   09118.43841141 -.00000151  00000-0  11592-6 0  2398
2 26545  64.5573 270.8650 0055581 286.5470  72.9506 14.80578489463835
UNISAT                  
1 26547U 00057C   09117.85429588 -.00000081  00000-0  90450-5 0  2629
2 26547  64.5553 258.2193 0059617 291.3880  68.0888 14.82352917464052
SAUDISAT 1B             
1 26549U 00057E   09118.49755422 -.00000009  00000-0  18402-4 0  3189
2 26549  64.5571 287.0547 0058811 290.0289  69.4496 14.79435829463511
MOZHAYETS               
1 27560U 02054B   09118.75724857  .00000057  00000-0  23101-4 0  9347
2 27560  97.9379 324.0484 0043290   6.8450 353.3338 14.55020394339569
SAUDISAT 1C             
1 27607U 02058C   09118.16614816  .00000074  00000-0  33485-4 0  8716
2 27607  64.5587 177.0116 0073057 216.4949 143.1175 14.71431537341319
UNISAT 2                
1 27608U 02058D   09118.52713603 -.00000053  00000-0  13305-4 0  8853
2 27608  64.5560 142.0696 0054010 214.6572 145.1013 14.74409632342077
SAUDISAT 2              
1 28371U 04025F   09118.76140682  .00000022  00000-0  15864-4 0  4666
2 28371  98.0266 166.1262 0025776 197.9183 162.1102 14.52923920256196
UNISAT 3                
1 28373U 04025H   09118.70794949 -.00000004  00000-0  11252-4 0  3637
2 28373  98.0390 138.5399 0070114 255.0938 104.2477 14.43318325255008
SSETI EXPRESS (XO-53)   
1 28894U 05043E   09118.30028216  .00000037  00000-0  17193-4 0  4477
2 28894  98.0631  10.0395 0018128 143.1874 217.0571 14.59664654186576
SAUDISAT 3              
1 31118U 07012B   09118.74209294  .00000012  00000-0  10442-4 0  2744
2 31118  98.0143 193.3142 0016323  34.8094 325.4171 14.68013223108920
